CCSDS_OMM_VERS = 2.0
CREATION_DATE  = 
ORIGINATOR     = 

OBJECT_NAME    = KUIPER-00204
OBJECT_ID      = 2025-301N
CENTER_NAME    = EARTH
REF_FRAME      = TEME
TIME_SYSTEM    = UTC
MEAN_ELEMENT_THEORY = SGP/SGP4

EPOCH          = 2026-01-12T20:00:04.000032
MEAN_MOTION    = 15.24320501
ECCENTRICITY   = .0004649
INCLINATION    = 51.8818
RA_OF_ASC_NODE = 335.3341
ARG_OF_PERICENTER = 123.8722
MEAN_ANOMALY   = 233.9843

EPHEMERIS_TYPE = 0
CLASSIFICATION_TYPE = U
NORAD_CAT_ID   = 67145
ELEMENT_SET_NO = 999
REV_AT_EPOCH   = 525
BSTAR          = -.44771E-1
MEAN_MOTION_DOT = -.1021306E-1
MEAN_MOTION_DDOT = 0

CCSDS_OMM_VERS = 2.0
CREATION_DATE  = 
ORIGINATOR     = 

OBJECT_NAME    = KUIPER-00210
OBJECT_ID      = 2025-301P
CENTER_NAME    = EARTH
REF_FRAME      = TEME
TIME_SYSTEM    = UTC
MEAN_ELEMENT_THEORY = SGP/SGP4

EPOCH          = 2026-01-11T22:10:22.595232
MEAN_MOTION    = 15.34845751
ECCENTRICITY   = .00112284
INCLINATION    = 51.8611
RA_OF_ASC_NODE = 339.7720
ARG_OF_PERICENTER = 194.3333
MEAN_ANOMALY   = 165.7336

EPHEMERIS_TYPE = 0
CLASSIFICATION_TYPE = U
NORAD_CAT_ID   = 67146
ELEMENT_SET_NO = 999
REV_AT_EPOCH   = 517
BSTAR          = .42009787E-3
MEAN_MOTION_DOT = .1408E-3
MEAN_MOTION_DDOT = 0

CCSDS_OMM_VERS = 2.0
CREATION_DATE  = 
ORIGINATOR     = 

OBJECT_NAME    = KUIPER-00221
OBJECT_ID      = 2025-301Q
CENTER_NAME    = EARTH
REF_FRAME      = TEME
TIME_SYSTEM    = UTC
MEAN_ELEMENT_THEORY = SGP/SGP4

EPOCH          = 2026-01-12T20:00:04.000032
MEAN_MOTION    = 15.34484730
ECCENTRICITY   = .0004922
INCLINATION    = 51.8735
RA_OF_ASC_NODE = 335.1222
ARG_OF_PERICENTER = 166.2414
MEAN_ANOMALY   = 325.3085

EPHEMERIS_TYPE = 0
CLASSIFICATION_TYPE = U
NORAD_CAT_ID   = 67147
ELEMENT_SET_NO = 999
REV_AT_EPOCH   = 463
BSTAR          = .30724E-3
MEAN_MOTION_DOT = .10056E-3
MEAN_MOTION_DDOT = 0

CCSDS_OMM_VERS = 2.0
CREATION_DATE  = 
ORIGINATOR     = 

OBJECT_NAME    = KUIPER-00232
OBJECT_ID      = 2025-301R
CENTER_NAME    = EARTH
REF_FRAME      = TEME
TIME_SYSTEM    = UTC
MEAN_ELEMENT_THEORY = SGP/SGP4

EPOCH          = 2026-01-12T14:18:23.094432
MEAN_MOTION    = 15.37200181
ECCENTRICITY   = .0002457
INCLINATION    = 51.8753
RA_OF_ASC_NODE = 336.0566
ARG_OF_PERICENTER = 92.5867
MEAN_ANOMALY   = 267.5401

EPHEMERIS_TYPE = 0
CLASSIFICATION_TYPE = U
NORAD_CAT_ID   = 67148
ELEMENT_SET_NO = 999
REV_AT_EPOCH   = 511
BSTAR          = .42701E-3
MEAN_MOTION_DOT = .15441E-3
MEAN_MOTION_DDOT = 0

CCSDS_OMM_VERS = 2.0
CREATION_DATE  = 
ORIGINATOR     = 

OBJECT_NAME    = KUIPER-00241
OBJECT_ID      = 2025-301S
CENTER_NAME    = EARTH
REF_FRAME      = TEME
TIME_SYSTEM    = UTC
MEAN_ELEMENT_THEORY = SGP/SGP4

EPOCH          = 2026-01-12T14:29:37.690944
MEAN_MOTION    = 15.36847261
ECCENTRICITY   = .0003122
INCLINATION    = 51.8755
RA_OF_ASC_NODE = 336.1059
ARG_OF_PERICENTER = 128.0221
MEAN_ANOMALY   = 232.1048

EPHEMERIS_TYPE = 0
CLASSIFICATION_TYPE = U
NORAD_CAT_ID   = 67149
ELEMENT_SET_NO = 999
REV_AT_EPOCH   = 544
BSTAR          = .72166E-3
MEAN_MOTION_DOT = .26102E-3
MEAN_MOTION_DDOT = 0

CCSDS_OMM_VERS = 2.0
CREATION_DATE  = 
ORIGINATOR     = 

OBJECT_NAME    = KUIPER-00245
OBJECT_ID      = 2025-301T
CENTER_NAME    = EARTH
REF_FRAME      = TEME
TIME_SYSTEM    = UTC
MEAN_ELEMENT_THEORY = SGP/SGP4

EPOCH          = 2026-01-12T20:00:04.000032
MEAN_MOTION    = 15.24292279
ECCENTRICITY   = .0007569
INCLINATION    = 51.8774
RA_OF_ASC_NODE = 335.4357
ARG_OF_PERICENTER = 180.2923
MEAN_ANOMALY   = 130.6127

EPHEMERIS_TYPE = 0
CLASSIFICATION_TYPE = U
NORAD_CAT_ID   = 67150
ELEMENT_SET_NO = 999
REV_AT_EPOCH   = 463
BSTAR          = -.39785E-1
MEAN_MOTION_DOT = -.915667E-2
MEAN_MOTION_DDOT = 0

CCSDS_OMM_VERS = 2.0
CREATION_DATE  = 
ORIGINATOR     = 

OBJECT_NAME    = KUIPER-00246
OBJECT_ID      = 2025-301U
CENTER_NAME    = EARTH
REF_FRAME      = TEME
TIME_SYSTEM    = UTC
MEAN_ELEMENT_THEORY = SGP/SGP4

EPOCH          = 2026-01-12T20:51:27.871776
MEAN_MOTION    = 15.36596608
ECCENTRICITY   = .0003883
INCLINATION    = 51.8751
RA_OF_ASC_NODE = 334.8842
ARG_OF_PERICENTER = 154.7705
MEAN_ANOMALY   = 205.3471

EPHEMERIS_TYPE = 0
CLASSIFICATION_TYPE = U
NORAD_CAT_ID   = 67151
ELEMENT_SET_NO = 999
REV_AT_EPOCH   = 517
BSTAR          = .76349E-3
MEAN_MOTION_DOT = .27419E-3
MEAN_MOTION_DDOT = 0

CCSDS_OMM_VERS = 2.0
CREATION_DATE  = 
ORIGINATOR     = 

OBJECT_NAME    = KUIPER-00247
OBJECT_ID      = 2025-301V
CENTER_NAME    = EARTH
REF_FRAME      = TEME
TIME_SYSTEM    = UTC
MEAN_ELEMENT_THEORY = SGP/SGP4

EPOCH          = 2026-01-12T01:23:28.139712
MEAN_MOTION    = 15.34547674
ECCENTRICITY   = .0011208
INCLINATION    = 51.8638
RA_OF_ASC_NODE = 339.1761
ARG_OF_PERICENTER = 206.6273
MEAN_ANOMALY   = 153.4138

EPHEMERIS_TYPE = 0
CLASSIFICATION_TYPE = U
NORAD_CAT_ID   = 67152
ELEMENT_SET_NO = 999
REV_AT_EPOCH   = 502
BSTAR          = .52500937E-3
MEAN_MOTION_DOT = .17531E-3
MEAN_MOTION_DDOT = 0

CCSDS_OMM_VERS = 2.0
CREATION_DATE  = 
ORIGINATOR     = 

OBJECT_NAME    = KUIPER-00248
OBJECT_ID      = 2025-301W
CENTER_NAME    = EARTH
REF_FRAME      = TEME
TIME_SYSTEM    = UTC
MEAN_ELEMENT_THEORY = SGP/SGP4

EPOCH          = 2026-01-12T07:20:03.921216
MEAN_MOTION    = 15.35330022
ECCENTRICITY   = .00087725
INCLINATION    = 51.8694
RA_OF_ASC_NODE = 337.8478
ARG_OF_PERICENTER = 193.8805
MEAN_ANOMALY   = 166.1941

EPHEMERIS_TYPE = 0
CLASSIFICATION_TYPE = U
NORAD_CAT_ID   = 67153
ELEMENT_SET_NO = 999
REV_AT_EPOCH   = 523
BSTAR          = .98099573E-3
MEAN_MOTION_DOT = .33983E-3
MEAN_MOTION_DDOT = 0

CCSDS_OMM_VERS = 2.0
CREATION_DATE  = 
ORIGINATOR     = 

OBJECT_NAME    = KUIPER-00249
OBJECT_ID      = 2025-301X
CENTER_NAME    = EARTH
REF_FRAME      = TEME
TIME_SYSTEM    = UTC
MEAN_ELEMENT_THEORY = SGP/SGP4

EPOCH          = 2026-01-12T15:03:22.849056
MEAN_MOTION    = 15.35713063
ECCENTRICITY   = .0008379
INCLINATION    = 51.8676
RA_OF_ASC_NODE = 336.2502
ARG_OF_PERICENTER = 192.7258
MEAN_ANOMALY   = 167.3517

EPHEMERIS_TYPE = 0
CLASSIFICATION_TYPE = U
NORAD_CAT_ID   = 67154
ELEMENT_SET_NO = 999
REV_AT_EPOCH   = 511
BSTAR          = .11983E-2
MEAN_MOTION_DOT = .42155E-3
MEAN_MOTION_DDOT = 0

CCSDS_OMM_VERS = 2.0
CREATION_DATE  = 
ORIGINATOR     = 

OBJECT_NAME    = KUIPER-00250
OBJECT_ID      = 2025-301Y
CENTER_NAME    = EARTH
REF_FRAME      = TEME
TIME_SYSTEM    = UTC
MEAN_ELEMENT_THEORY = SGP/SGP4

EPOCH          = 2026-01-12T14:50:15.772704
MEAN_MOTION    = 15.36192932
ECCENTRICITY   = .0006545
INCLINATION    = 51.8738
RA_OF_ASC_NODE = 336.2005
ARG_OF_PERICENTER = 180.3014
MEAN_ANOMALY   = 179.7969

EPHEMERIS_TYPE = 0
CLASSIFICATION_TYPE = U
NORAD_CAT_ID   = 67155
ELEMENT_SET_NO = 999
REV_AT_EPOCH   = 514
BSTAR          = .77289E-3
MEAN_MOTION_DOT = .2741E-3
MEAN_MOTION_DDOT = 0

CCSDS_OMM_VERS = 2.0
CREATION_DATE  = 
ORIGINATOR     = 

OBJECT_NAME    = KUIPER-00251
OBJECT_ID      = 2025-301Z
CENTER_NAME    = EARTH
REF_FRAME      = TEME
TIME_SYSTEM    = UTC
MEAN_ELEMENT_THEORY = SGP/SGP4

EPOCH          = 2026-01-12T07:19:17.591808
MEAN_MOTION    = 15.35340561
ECCENTRICITY   = .00092658
INCLINATION    = 51.8684
RA_OF_ASC_NODE = 337.8425
ARG_OF_PERICENTER = 189.8209
MEAN_ANOMALY   = 170.2597

EPHEMERIS_TYPE = 0
CLASSIFICATION_TYPE = U
NORAD_CAT_ID   = 67156
ELEMENT_SET_NO = 999
REV_AT_EPOCH   = 525
BSTAR          = .8987822E-3
MEAN_MOTION_DOT = .31106E-3
MEAN_MOTION_DDOT = 0

